ION SCV-004             
1 50993U 22002K   26068.68892644  .00006538  00000+0  23198-3 0  9998
2 50993  97.2961 128.2294 0007216   1.6783 358.4480 15.29369331230088
STARLINK-31691          
1 59856U 24097X   26068.83431115 -.00001985  00000+0 -62593-4 0  9996
2 59856  43.0044 273.1300 0001941 276.3289  83.7342 15.27587247101948
